COSMOS 2425 (716)       
1 29670U 06062A   21066.19621008  .00000082  00000-0  00000-0 0  9990
2 29670  64.8729 258.9027 0024719 349.8176 188.2494  2.13113627110493
COSMOS 2433 (720)       
1 32275U 07052A   21067.07380030 -.00000070  00000-0  00000+0 0  9997
2 32275  66.0465  20.1517 0004277 276.9618  32.6018  2.13103955104029
COSMOS 2432 (719)       
1 32276U 07052B   21066.58137874 -.00000066  00000-0  00000-0 0  9995
2 32276  66.0585  20.2609 0012309 323.7307 277.5928  2.13103631104017
COSMOS 2434 (721)       
1 32393U 07065A   21066.79279205  .00000080  00000-0  00000-0 0  9992
2 32393  64.4913 257.3881 0005014  77.2327 264.8644  2.13103131102722
COSMOS 2436 (723)       
1 32395U 07065C   21067.30093740  .00000076  00000-0  00000+0 0  9994
2 32395  64.4986 257.4236 0016081   7.4428 140.6246  2.13103035102678
COSMOS 2456 (730)       
1 36111U 09070A   21066.55939181 -.00000018  00000-0  00000-0 0  9994
2 36111  64.2590 137.0768 0004170 309.0386  25.8885  2.13099161 87387
COSMOS 2457 (733)       
1 36112U 09070B   21066.78569424 -.00000018  00000-0  00000-0 0  9999
2 36112  64.2423 136.9557 0005262 171.6120 100.4964  2.13101396 87392
COSMOS 2459 (731)       
1 36400U 10007A   21067.19362685 -.00000073  00000-0  00000+0 0  9997
2 36400  65.9441  19.0852 0026795 345.6685 272.1010  2.13105141 85740
COSMOS 2461 (735)       
1 36401U 10007B   21067.19332590 -.00000073  00000-0  00000+0 0  9990
2 36401  65.9398  19.0501 0021176   0.9011 258.4131  2.13103845 85756
COSMOS 2460 (732)       
1 36402U 10007C   21066.69869723 -.00000069  00000-0  00000-0 0  9994
2 36402  65.9257  19.0266 0002401 304.7740 238.8741  2.13106611 85745
COSMOS 2464 (736)       
1 37139U 10041C   21067.18933050  .00000076  00000-0  00000+0 0  9996
2 37139  64.0880 256.6837 0029166  14.0957 133.8824  2.13100794 81812
COSMOS 2471 (701K)      
1 37372U 11009A   21067.30260238 -.00000074  00000-0  00000+0 0  9994
2 37372  65.9247  18.9432 0013691 230.0746 220.0405  2.13081070 78039
COSMOS 2476 (744)       
1 37867U 11064A   21067.22155609 -.00000017  00000-0  00000+0 0  9997
2 37867  64.5559 138.2271 0020812 237.7351 146.6605  2.13101901 72759
COSMOS 2477 (745)       
1 37868U 11064B   21066.60988019 -.00000019  00000-0  00000-0 0  9991
2 37868  64.5644 138.3081 0018295 238.6970 214.8129  2.13101712 72696
COSMOS 2475 (743)       
1 37869U 11064C   21066.55539182 -.00000019  00000-0  00000-0 0  9999
2 37869  64.5703 138.3123 0022127 258.5532 110.7622  2.13101856 72707
COSMOS 2485 (747)       
1 39155U 13019A   21066.34696300 -.00000019  00000-0  00000-0 0  9994
2 39155  64.7214 138.5840 0021467 234.0724 243.8553  2.13101715 61200
COSMOS 2492 (754)       
1 39620U 14012A   21066.84980067 -.00000071  00000-0  00000-0 0  9994
2 39620  65.8157  18.7668 0015558 321.5739 217.0247  2.13103272 54164
COSMOS 2500 (755)       
1 40001U 14032A   21066.65965508 -.00000070  00000-0  00000-0 0  9992
2 40001  65.7562  18.6698 0006403 226.1730  26.4276  2.13102611 52371
COSMOS 2501 (702K)      
1 40315U 14075A   21067.58168218  .00000072  00000-0  00000+0 0  9993
2 40315  63.8027 257.5147 0015412 207.2537 198.6618  2.13101384 48803
COSMOS 2514 (751)       
1 41330U 16008A   21066.79959297 -.00000072  00000-0  00000-0 0  9998
2 41330  65.5576  18.4715 0010093 227.9567 314.9490  2.13102993 39545
COSMOS 2516 (753)       
1 41554U 16032A   21067.16646551  .00000076  00000-0  00000+0 0  9993
2 41554  64.0263 257.6741 0011136 213.6310 143.7758  2.13106833 37150
COSMOS 2522 (752)       
1 42939U 17055A   21066.64390694  .00000080  00000-0  00000-0 0  9999
2 42939  64.2624 257.9487 0005045 249.8644 291.6097  2.13102022 26900
COSMOS 2527 (756)       
1 43508U 18053A   21067.48880927 -.00000015  00000-0  00000+0 0  9995
2 43508  64.8862 138.4485 0008064 232.8159 268.8485  2.13102552 21215
COSMOS 2529 (757)       
1 43687U 18086A   21066.99375946  .00000078  00000-0  00000+0 0  9992
2 43687  64.4741 258.1280 0007753 280.3782 125.0447  2.13102155 18220
COSMOS 2534 (758)       
1 44299U 19030A   21067.48021385  .00000075  00000-0  00000+0 0  9999
2 44299  64.5433 257.9548 0011281 300.0865 253.4026  2.13101957 13870
COSMOS 2544 (759)       
1 44850U 19088A   21067.12649341 -.00000017  00000-0  00000+0 0  9991
2 44850  64.8706 138.3226 0012271 263.1757   4.3822  2.13102379  9649
COSMOS 2545 (760)       
1 45358U 20018A   21066.63805956 -.00000070  00000-0  00000-0 0  9991
2 45358  64.8878  19.4685 0010388 261.0608 201.9366  2.13102819  7588
